{
    "links": {
        "self": "http://www.neowsapp.com/rest/v1/neo/3782017?api_key=iIulBulltgU6a56xZRHN4H3l9WmuAYTsLGpBGhQ2"
    },
    "id": "3782017",
    "neo_reference_id": "3782017",
    "name": "(2017 SA21)",
    "designation": "2017 SA21",
    "nasa_jpl_url": "http://ssd.jpl.nasa.gov/sbdb.cgi?sstr=3782017",
    "absolute_magnitude_h": 28.2,
    "estimated_diameter": {
        "kilometers": {
            "estimated_diameter_min": 0.0060891262,
            "estimated_diameter_max": 0.0136157002
        },
        "meters": {
            "estimated_diameter_min": 6.0891262211,
            "estimated_diameter_max": 13.6157001539
        },
        "miles": {
            "estimated_diameter_min": 0.0037836064,
            "estimated_diameter_max": 0.0084604012
        },
        "feet": {
            "estimated_diameter_min": 19.9774488711,
            "estimated_diameter_max": 44.6709336928
        }
    },
    "is_potentially_hazardous_asteroid": false,
    "close_approach_data": [
        {
            "close_approach_date": "2017-09-26",
            "close_approach_date_full": "2017-Sep-26 23:27",
            "epoch_date_close_approach": 1506468420000,
            "relative_velocity": {
                "kilometers_per_second": "9.5822030352",
                "kilometers_per_hour": "34495.9309267162",
                "miles_per_hour": "21434.4299694365"
            },
            "miss_distance": {
                "astronomical": "0.0029496613",
                "lunar": "1.1474182457",
                "kilometers": "441263.047701431",
                "miles": "274188.1435685078"
            },
            "orbiting_body": "Moon"
        },
        {
            "close_approach_date": "2017-09-27",
            "close_approach_date_full": "2017-Sep-27 08:02",
            "epoch_date_close_approach": 1506499320000,
            "relative_velocity": {
                "kilometers_per_second": "10.0630034201",
                "kilometers_per_hour": "36226.8123124986",
                "miles_per_hour": "22509.9323505078"
            },
            "miss_distance": {
                "astronomical": "0.0038157984",
                "lunar": "1.4843455776",
                "kilometers": "570835.312989408",
                "miles": "354700.6158055104"
            },
            "orbiting_body": "Earth"
        }
    ],
    "orbital_data": {
        "orbit_id": "2",
        "orbit_determination_date": "2017-10-17 06:24:21",
        "first_observation_date": "2017-09-29",
        "last_observation_date": "2017-10-01",
        "data_arc_in_days": 2,
        "observations_used": 32,
        "orbit_uncertainty": "7",
        "minimum_orbit_intersection": ".00228567",
        "jupiter_tisserand_invariant": "3.331",
        "epoch_osculation": "2459000.5",
        "eccentricity": ".5825710310935462",
        "semi_major_axis": "2.31198627604276",
        "inclination": "4.222919076153013",
        "ascending_node_longitude": "185.4215269472732",
        "orbital_period": "1284.033352369106",
        "perihelion_distance": ".9650900473344013",
        "perihelion_argument": "152.3057969085434",
        "aphelion_distance": "3.658882504751119",
        "perihelion_time": "2459287.351383045609",
        "mean_anomaly": "279.5764676159795",
        "mean_motion": ".2803665491521555",
        "equinox": "J2000",
        "orbit_class": {
            "orbit_class_type": "APO",
            "orbit_class_description": "Near-Earth asteroid orbits which cross the Earth’s orbit similar to that of 1862 Apollo",
            "orbit_class_range": "a (semi-major axis) > 1.0 AU; q (perihelion) < 1.017 AU"
        }
    },
    "is_sentry_object": false
}